O3B FM5                 
1 39188U 13031A   22324.19195507 -.00000010  00000+0  00000+0 0  9997
2 39188   0.0659  11.8519 0002771 232.3452 115.7817  5.00115367171843
O3B FM4                 
1 39189U 13031B   22323.64824533 -.00000011  00000+0  00000+0 0  9996
2 39189   0.0442 353.1580 0002720 250.2669 116.5545  5.00115875171747
O3B FM2                 
1 39190U 13031C   22323.73971685 -.00000011  00000+0  00000+0 0  9999
2 39190   0.0420 346.9630 0002726 255.1902 117.8265  5.00115124171808
O3B PFM                 
1 39191U 13031D   22323.56608208 -.00000011  00000+0  00000+0 0  9999
2 39191   0.0575   8.7196 0002727 230.5605 120.7002  5.00115760171345
O3B FM3                 
1 40079U 14038A   22322.42154820 -.00000013  00000+0  00000+0 0  9996
2 40079   0.0502 359.4774 0004623 214.1293 146.3706  5.00115381147660
O3B FM7                 
1 40080U 14038B   22323.76684998 -.00000011  00000+0  00000+0 0  9998
2 40080   0.0503 354.3101 0002529 287.0857  78.5830  5.00115525152568
O3B FM6                 
1 40081U 14038C   22323.59335069 -.00000011  00000+0  00000+0 0  9992
2 40081   0.0490 359.4679 0002789 240.1142 120.3975  5.00115295152510
O3B FM8                 
1 40082U 14038D   22323.84712521 -.00000010  00000+0  00000+0 0  9992
2 40082   0.0460 357.8450 0002667 239.3369 122.7997  5.00115695152821
O3B FM10                
1 40348U 14083A   22323.67335757 -.00000011  00000+0  00000+0 0  9991
2 40348   0.0524   9.0512 0002701 230.1403 120.7891  5.00115134144582
O3B FM11                
1 40349U 14083B   22322.68732999 -.00000013  00000+0  00000+0 0  9993
2 40349   0.0561   5.8527 0002858 246.7010 107.4218  5.00115414144557
O3B FM12                
1 40350U 14083C   22323.91389736 -.00000010  00000+0  00000+0 0  9996
2 40350   0.0551   5.5840 0002885 236.0125 118.3817  5.00115281144763
O3B FM9                 
1 40351U 14083D   22322.94122863 -.00000012  00000+0  00000+0 0  9997
2 40351   0.0572   5.4210 0002697 234.2716 120.2877  5.00116079144724
DIAMOND RED             
1 42783U 17036U   22324.10729847  .00009048  00000+0  30895-3 0  9990
2 42783  97.1824 359.6638 0011173 128.9671 231.2568 15.30472620300723
DIAMOND GREEN           
1 42785U 17036W   22324.36818293  .00009947  00000+0  33841-3 0  9996
2 42785  97.1826 359.9842 0011025 129.4638 230.7581 15.30565314300757
DIAMOND BLUE            
1 42786U 17036X   22324.04080409  .00009857  00000+0  33572-3 0  9993
2 42786  97.1827 359.6589 0011064 130.5779 229.6428 15.30529012300703
LEO VANTAGE 1           
1 43113U 18004C   22323.72185691  .00001898  00000+0  15543-3 0  9992
2 43113  99.2436  60.3698 0399626  84.7029 279.9620 14.54624422246803
O3B FM15                
1 43231U 18024A   22323.40695312 -.00000011  00000+0  00000+0 0  9991
2 43231   0.0502  12.1140 0003046 228.2845 119.5783  5.00116107 85878
O3B FM16                
1 43232U 18024B   22323.66025285 -.00000011  00000+0  00000+0 0  9996
2 43232   0.0487  16.6472 0003034 224.5848 118.7448  5.00115928 85630
O3B FM14                
1 43233U 18024C   22323.69996329 -.00000011  00000+0  00000+0 0  9996
2 43233   0.0476  17.9359 0002935 226.4879 115.5530  5.00115347 85644
O3B FM13                
1 43234U 18024D   22323.35371198 -.00000011  00000+0  00000+0 0  9991
2 43234   0.0600  11.1711 0003861 230.8689 117.9280  5.00115311 85749
O3B FM20                
1 44112U 19020A   22323.72665648 -.00000011  00000+0  00000+0 0  9991
2 44112   0.0518   8.6989 0003313 236.9306 114.3432  5.00115465 66262
O3B FM19                
1 44113U 19020B   22321.35481454 -.00000016  00000+0  00000+0 0  9995
2 44113   0.0750  12.4113 0002176 254.2659  93.3043  5.00115220 66019
O3B FM17                
1 44114U 19020C   22323.83394796 -.00000010  00000+0  00000+0 0  9997
2 44114   0.0322   8.7423 0003167 231.6382 119.5952  5.00115636 66213
O3B FM18                
1 44115U 19020D   22323.98033531 -.00000010  00000+0  00000+0 0  9991
2 44115   0.0522   8.6861 0002956 231.0249 120.2671  5.00115762 66343
SALSAT                  
1 46495U 20068K   22323.62585920  .00002184  00000+0  15655-3 0  9992
2 46495  97.7456 265.1538 0018159 108.9607 251.3589 15.05323352117521
